[{"OBJECT_NAME":"ONEWEB-0590","OBJECT_ID":"2022-166Q","EPOCH":"2026-03-09T21:47:24.128160","MEAN_MOTION":13.2182575,"ECCENTRICITY":0.00017454,"INCLINATION":87.9172,"RA_OF_ASC_NODE":263.762,"ARG_OF_PERICENTER":76.452,"MEAN_ANOMALY":283.6808,"EPHEMERIS_TYPE":0,"CLASSIFICATION_TYPE":"U","NORAD_CAT_ID":54656,"ELEMENT_SET_NO":999,"REV_AT_EPOCH":15841,"BSTAR":-0.00059402459,"MEAN_MOTION_DOT":-2.32e-6,"MEAN_MOTION_DDOT":0},{"OBJECT_NAME":"THORAD AGENA D DEB","OBJECT_ID":"1970-025RC","EPOCH":"2026-03-08T07:44:14.551296","MEAN_MOTION":13.3362803,"ECCENTRICITY":0.01713977,"INCLINATION":100.5234,"RA_OF_ASC_NODE":108.2794,"ARG_OF_PERICENTER":167.6015,"MEAN_ANOMALY":192.9404,"EPHEMERIS_TYPE":0,"CLASSIFICATION_TYPE":"U","NORAD_CAT_ID":42498,"ELEMENT_SET_NO":999,"REV_AT_EPOCH":57744,"BSTAR":0.0024572512,"MEAN_MOTION_DOT":1.271e-5,"MEAN_MOTION_DDOT":0}]
